{
"type": "FeatureCollection",
"name": "algarve_coastal_features",
"crs": { "type": "name", "properties": { "name": "urn:ogc:def:crs:OGC:1.3:CRS84" } },
"features": [
{ "type": "Feature", "properties": { "site_name": "tavira_west", "latitude": 37.105, "longitude": -7.68, "buffer_m": 4000, "slope_min": 0.0, "slope_max": 36.916019439697266, "slope_mean": 1.9278333135618271, "slope_std": 2.2870060002381387, "slope_median": 1.2785332202911377, "slope_percentile_90": 4.4542355537414551, "aspect_min": 0.0, "aspect_max": 359.9957275390625, "aspect_mean": 194.59991287572345, "aspect_std": 109.63499909438667, "aspect_median": 179.99998474121094, "timestamp": "2026-06-06T01:03:17.189418" }, "geometry": { "type": "Point", "coordinates": [ -7.68, 37.105 ] } },
{ "type": "Feature", "properties": { "site_name": "ilha_de_tavira", "latitude": 37.095, "longitude": -7.72, "buffer_m": 4000, "slope_min": 0.0, "slope_max": 21.765378952026367, "slope_mean": 2.3135938690837259, "slope_std": 2.2101374738672845, "slope_median": 1.6823370456695557, "slope_percentile_90": 5.0790414810180664, "aspect_min": 0.0, "aspect_max": 359.9957275390625, "aspect_mean": 190.30000155537928, "aspect_std": 119.37285102172454, "aspect_median": 202.45724487304688, "timestamp": "2026-06-06T01:03:17.189418" }, "geometry": { "type": "Point", "coordinates": [ -7.72, 37.095 ] } },
{ "type": "Feature", "properties": { "site_name": "fuseta", "latitude": 37.06, "longitude": -7.76, "buffer_m": 4000, "slope_min": 0.0, "slope_max": 19.83338737487793, "slope_mean": 2.1022488563159367, "slope_std": 2.2630949136703324, "slope_median": 1.5249173641204834, "slope_percentile_90": 5.0959339141845703, "aspect_min": 0.0, "aspect_max": 359.99462890625, "aspect_mean": 184.93081878442723, "aspect_std": 103.53962359523197, "aspect_median": 179.99998474121094, "timestamp": "2026-06-06T01:03:17.189418" }, "geometry": { "type": "Point", "coordinates": [ -7.76, 37.06 ] } },
{ "type": "Feature", "properties": { "site_name": "olhao_offshore", "latitude": 37.035, "longitude": -7.82, "buffer_m": 4000, "slope_min": 0.0, "slope_max": 22.384347915649414, "slope_mean": 2.0877091891513397, "slope_std": 2.4403003038004143, "slope_median": 1.3782439231872559, "slope_percentile_90": 5.2934064865112305, "aspect_min": 0.0, "aspect_max": 359.99020385742188, "aspect_mean": 181.10998039398748, "aspect_std": 98.085922463927659, "aspect_median": 179.99998474121094, "timestamp": "2026-06-06T01:03:17.189418" }, "geometry": { "type": "Point", "coordinates": [ -7.82, 37.035 ] } },
{ "type": "Feature", "properties": { "site_name": "faro_east", "latitude": 37.01, "longitude": -7.88, "buffer_m": 4000, "slope_min": 0.0, "slope_max": 23.748224258422852, "slope_mean": 0.96958712302420735, "slope_std": 1.3899622245379504, "slope_median": 0.53022575378417969, "slope_percentile_90": 2.5661582946777344, "aspect_min": 0.0, "aspect_max": 359.99417114257812, "aspect_mean": 178.80106723917982, "aspect_std": 93.169732503286326, "aspect_median": 179.99998474121094, "timestamp": "2026-06-06T01:03:17.189418" }, "geometry": { "type": "Point", "coordinates": [ -7.88, 37.01 ] } },
{ "type": "Feature", "properties": { "site_name": "praia_de_faro", "latitude": 36.98, "longitude": -7.94, "buffer_m": 4000, "slope_min": 0.0, "slope_max": 10.665189743041992, "slope_mean": 0.42972161505723794, "slope_std": 0.84163087665145275, "slope_median": 0.0, "slope_percentile_90": 1.3514456748962402, "aspect_min": 0.0, "aspect_max": 359.98947143554688, "aspect_mean": 176.94819031620861, "aspect_std": 66.441024361242199, "aspect_median": 179.99998474121094, "timestamp": "2026-06-06T01:03:17.189418" }, "geometry": { "type": "Point", "coordinates": [ -7.94, 36.98 ] } },
{ "type": "Feature", "properties": { "site_name": "ancao_peninsula", "latitude": 36.965, "longitude": -8.0, "buffer_m": 4000, "slope_min": 0.0, "slope_max": 8.384770393371582, "slope_mean": 0.013542911921709483, "slope_std": 0.25584981560206721, "slope_median": 0.0, "slope_percentile_90": 0.0, "aspect_min": 0.0, "aspect_max": 356.14358520507812, "aspect_mean": 179.69542831365595, "aspect_std": 7.6135099564813862, "aspect_median": 179.99998474121094, "timestamp": "2026-06-06T01:03:17.189418" }, "geometry": { "type": "Point", "coordinates": [ -8.0, 36.965 ] } },
{ "type": "Feature", "properties": { "site_name": "quarteira", "latitude": 37.065, "longitude": -8.1, "buffer_m": 4000, "slope_min": 0.0, "slope_max": 23.445470809936523, "slope_mean": 1.8321047029317987, "slope_std": 2.5213226483280429, "slope_median": 0.47343182563781738, "slope_percentile_90": 5.4109535217285156, "aspect_min": 0.0, "aspect_max": 359.98788452148438, "aspect_mean": 174.14340150867096, "aspect_std": 82.021634641183354, "aspect_median": 179.99998474121094, "timestamp": "2026-06-06T01:03:17.189418" }, "geometry": { "type": "Point", "coordinates": [ -8.1, 37.065 ] } },
{ "type": "Feature", "properties": { "site_name": "vilamoura", "latitude": 37.075, "longitude": -8.13, "buffer_m": 4000, "slope_min": 0.0, "slope_max": 36.944911956787109, "slope_mean": 1.6123001894528819, "slope_std": 2.589868138675683, "slope_median": 0.15362498164176941, "slope_percentile_90": 4.8445529937744141, "aspect_min": 0.0, "aspect_max": 359.99703979492188, "aspect_mean": 174.42395431345699, "aspect_std": 80.425202157104778, "aspect_median": 179.99998474121094, "timestamp": "2026-06-06T01:03:17.189418" }, "geometry": { "type": "Point", "coordinates": [ -8.13, 37.075 ] } },
{ "type": "Feature", "properties": { "site_name": "olhos_de_agua", "latitude": 37.09, "longitude": -8.16, "buffer_m": 4000, "slope_min": 0.0, "slope_max": 38.528377532958984, "slope_mean": 1.9778672981173175, "slope_std": 2.9294217879881566, "slope_median": 0.99672406911849976, "slope_percentile_90": 5.080775260925293, "aspect_min": 0.0, "aspect_max": 359.99703979492188, "aspect_mean": 179.53121207406255, "aspect_std": 90.100551965715695, "aspect_median": 179.99998474121094, "timestamp": "2026-06-06T01:03:17.189418" }, "geometry": { "type": "Point", "coordinates": [ -8.16, 37.09 ] } },
{ "type": "Feature", "properties": { "site_name": "pedra_sta_eulalia", "latitude": 37.069081, "longitude": -8.210242, "buffer_m": 4000, "slope_min": 0.0, "slope_max": 38.528377532958984, "slope_mean": 1.0761756732579306, "slope_std": 2.8757260689423449, "slope_median": 0.0, "slope_percentile_90": 4.2341690063476562, "aspect_min": 0.0, "aspect_max": 359.99038696289062, "aspect_mean": 179.93717815081601, "aspect_std": 54.236264005579038, "aspect_median": 179.99998474121094, "timestamp": "2026-06-06T01:03:17.189418" }, "geometry": { "type": "Point", "coordinates": [ -8.210242, 37.069081 ] } },
{ "type": "Feature", "properties": { "site_name": "albufeira_reef", "latitude": 37.069, "longitude": -8.2105, "buffer_m": 4000, "slope_min": 0.0, "slope_max": 38.528377532958984, "slope_mean": 1.0716186149274167, "slope_std": 2.86859788413354, "slope_median": 0.0, "slope_percentile_90": 4.2255377769470215, "aspect_min": 0.0, "aspect_max": 359.99038696289062, "aspect_mean": 179.96785486455789, "aspect_std": 54.08308649183617, "aspect_median": 179.99998474121094, "timestamp": "2026-06-06T01:03:17.189418" }, "geometry": { "type": "Point", "coordinates": [ -8.2105, 37.069 ] } },
{ "type": "Feature", "properties": { "site_name": "gale", "latitude": 37.056, "longitude": -8.2296, "buffer_m": 4000, "slope_min": 0.0, "slope_max": 30.908515930175781, "slope_mean": 0.32575182426202853, "slope_std": 1.8106868181282296, "slope_median": 0.0, "slope_percentile_90": 0.0, "aspect_min": 0.0, "aspect_max": 359.88143920898438, "aspect_mean": 180.3424934644591, "aspect_std": 28.378093674493126, "aspect_median": 179.99998474121094, "timestamp": "2026-06-06T01:03:17.189418" }, "geometry": { "type": "Point", "coordinates": [ -8.2296, 37.056 ] } },
{ "type": "Feature", "properties": { "site_name": "salgados", "latitude": 37.095, "longitude": -8.3, "buffer_m": 4000, "slope_min": 0.0, "slope_max": 37.617866516113281, "slope_mean": 3.3585070795083243, "slope_std": 3.7242840170204223, "slope_median": 2.5183908939361572, "slope_percentile_90": 7.7839112281799316, "aspect_min": 0.0, "aspect_max": 359.99197387695312, "aspect_mean": 167.15428660339194, "aspect_std": 97.664111574255443, "aspect_median": 179.99998474121094, "timestamp": "2026-06-06T01:03:17.189418" }, "geometry": { "type": "Point", "coordinates": [ -8.3, 37.095 ] } },
{ "type": "Feature", "properties": { "site_name": "armacao_de_pera", "latitude": 37.07, "longitude": -8.36, "buffer_m": 4000, "slope_min": 0.0, "slope_max": 36.213417053222656, "slope_mean": 0.36013588082372439, "slope_std": 1.8130905628880452, "slope_median": 0.0, "slope_percentile_90": 0.0, "aspect_min": 0.0, "aspect_max": 359.91751098632812, "aspect_mean": 179.11876196256011, "aspect_std": 33.474803995081665, "aspect_median": 179.99998474121094, "timestamp": "2026-06-06T01:03:17.189418" }, "geometry": { "type": "Point", "coordinates": [ -8.36, 37.07 ] } }
]
}
